ONEWEB-0534             
1 55797U 23029B   26170.27509106 -.00000019  00000+0 -78552-4 0  9997
2 55797  87.9188 274.0533 0001862 100.8026 259.3318 13.20771686161420
ONEWEB-0556             
1 55798U 23029C   26170.58484448 -.00000006  00000+0 -45922-4 0  9994
2 55798  87.9186 273.9910 0001503  77.0467 283.0834 13.20774050161461
ONEWEB-0562             
1 55799U 23029D   26170.57138318  .00000067  00000+0  13356-3 0  9996
2 55799  87.9186 273.9744 0002206  77.6055 282.5325 13.20771531161467
ONEWEB-0563             
1 55800U 23029E   26170.56633774  .00000060  00000+0  11668-3 0  9991
2 55800  87.9184 274.0059 0001774 104.0594 256.0736 13.20772443161455
ONEWEB-0564             
1 55801U 23029F   26170.55960856  .00000083  00000+0  17143-3 0  9994
2 55801  87.9187 273.9806 0002126  89.8874 270.2503 13.20771382161462
ONEWEB-0638             
1 55802U 23029G   26170.60049444 -.00000018  00000+0 -82370-4 0  9997
2 55802  87.8958 289.2706 0001714  84.0863 276.0462 13.14504359159718
ONEWEB-0639             
1 55803U 23029H   26170.60968929  .00000060  00000+0  11726-3 0  9997
2 55803  87.9172 304.4931 0001433 130.3944 229.7314 13.19725712159221
ONEWEB-0640             
1 55804U 23029J   26170.60999983  .00000141  00000+0  34572-3 0  9996
2 55804  87.8955 289.2594 0001315  87.2424 272.8856 13.14503530159730
ONEWEB-0641             
1 55805U 23029K   26170.60494428  .00000089  00000+0  18984-3 0  9991
2 55805  87.9181 304.4832 0001819 105.3464 254.7870 13.19725109159236
ONEWEB-0642             
1 55806U 23029L   26170.60021326 -.00000033  00000+0 -11566-3 0  9995
2 55806  87.9172 304.4961 0001675 126.2605 233.8683 13.19725383159222
ONEWEB-0643             
1 55807U 23029M   26170.57987377 -.00000071  00000+0 -22666-3 0  9994
2 55807  87.8959 289.2527 0002012 120.8088 239.3240 13.14503676159701
ONEWEB-0644             
1 55808U 23029N   26170.36801903  .00000079  00000+0  16593-3 0  9990
2 55808  87.9171 304.5436 0001781 110.6391 249.4933 13.19724666159198
ONEWEB-0645             
1 55809U 23029P   26170.61758160  .00000144  00000+0  32738-3 0  9997
2 55809  87.9169 304.4910 0001456 103.6814 256.4481 13.19724905159229
ONEWEB-0646             
1 55810U 23029Q   26170.33169770  .00000125  00000+0  27943-3 0  9992
2 55810  87.9173 304.5479 0001834 108.3578 251.7754 13.19726087159174
ONEWEB-0648             
1 55811U 23029R   26170.62426565  .00000294  00000+0  75788-3 0  9990
2 55811  87.8969 289.2178 0001233 123.9583 236.1665 13.14501763159719
ONEWEB-0649             
1 55812U 23029S   26170.35695991  .00000064  00000+0  12685-3 0  9994
2 55812  87.9173 304.5407 0001618 103.1714 256.9599 13.19725276159210
ONEWEB-0650             
1 55813U 23029T   26170.35221057 -.00000064  00000+0 -19236-3 0  9994
2 55813  87.9171 304.5441 0001566 120.4854 239.6433 13.19725571159185
ONEWEB-0652             
1 55814U 23029U   26170.60522577 -.00000151  00000+0 -44140-3 0  9993
2 55814  87.8965 289.2286 0002088  98.4986 261.6381 13.14501873159686
ONEWEB-0653             
1 55815U 23029V   26170.58937514 -.00000171  00000+0 -49612-3 0  9993
2 55815  87.8967 289.2296 0001899  98.3784 261.7561 13.14503357159718
ONEWEB-0654             
1 55816U 23029W   26170.58461599 -.00000105  00000+0 -31822-3 0  9990
2 55816  87.8966 289.2269 0002130  91.8901 268.2473 13.14504701159736
ONEWEB-0656             
1 55817U 23029X   26170.55286416  .00000132  00000+0  29309-3 0  9996
2 55817  87.9202 273.9585 0002278  91.3429 268.7966 13.20773071161465
ONEWEB-0657             
1 55818U 23029Y   26170.34749312  .00000049  00000+0  88848-4 0  9994
2 55818  87.9172 304.5438 0002583 101.1127 259.0297 13.19724900159196
ONEWEB-0658             
1 55819U 23029Z   26170.34275294  .00000102  00000+0  22340-3 0  9992
2 55819  87.9181 304.5205 0001751 112.3476 247.7842 13.19724786159200
ONEWEB-0660             
1 55820U 23029AA  26170.56242120  .00000173  00000+0  43302-3 0  9999
2 55820  87.8976 289.2247 0001561  99.6504 260.4803 13.14503827159717
ONEWEB-0661             
1 55821U 23029AB  26170.36896412 -.00000111  00000+0 -33511-3 0  9992
2 55821  87.8958 289.3079 0001638  96.3177 263.8139 13.14503372159676
ONEWEB-0662             
1 55822U 23029AC  26170.55608695  .00000235  00000+0  59846-3 0  9992
2 55822  87.8957 289.2764 0001575 100.7810 259.3497 13.14503146159744
ONEWEB-0663             
1 55823U 23029AD  26170.58639084  .00000051  00000+0  94456-4 0  9995
2 55823  87.9200 274.0234 0001611 108.9282 251.2026 13.20869195161462
ONEWEB-0664             
1 55824U 23029AE  26170.53940234  .00000075  00000+0  15268-3 0  9992
2 55824  87.9187 274.0136 0001740  87.5370 272.5963 13.20771031161457
ONEWEB-0665             
1 55825U 23029AF  26170.59414444 -.00000111  00000+0 -33359-3 0  9992
2 55825  87.8958 289.2437 0001602 104.0910 256.0398 13.14503427159728
ONEWEB-0666             
1 55826U 23029AG  26170.53266699  .00000054  00000+0  10063-3 0  9995
2 55826  87.9185 274.0042 0002725 104.2237 255.9199 13.20771881161466
