OBJECT_NAME,OBJECT_ID,EPOCH,MEAN_MOTION,ECCENTRICITY,INCLINATION,RA_OF_ASC_NODE,ARG_OF_PERICENTER,MEAN_ANOMALY,EPHEMERIS_TYPE,CLASSIFICATION_TYPE,NORAD_CAT_ID,ELEMENT_SET_NO,REV_AT_EPOCH,BSTAR,MEAN_MOTION_DOT,MEAN_MOTION_DDOT
ONEWEB-0534,2023-029B,2026-06-19T06:36:07.867584,13.20771686,.00018625,87.9188,274.0533,100.8026,259.3318,0,U,55797,999,16142,-.78552343E-4,-.19E-6,0
ONEWEB-0556,2023-029C,2026-06-19T14:02:10.563072,13.20774050,.0001503,87.9186,273.9910,77.0467,283.0834,0,U,55798,999,16146,-.45921858E-4,-.6E-7,0
ONEWEB-0562,2023-029D,2026-06-19T13:42:47.506752,13.20771531,.00022065,87.9186,273.9744,77.6055,282.5325,0,U,55799,999,16146,.13355571E-3,.67E-6,0
ONEWEB-0563,2023-029E,2026-06-19T13:35:31.580736,13.20772443,.00017744,87.9184,274.0059,104.0594,256.0736,0,U,55800,999,16145,.11668345E-3,.6E-6,0
ONEWEB-0564,2023-029F,2026-06-19T13:25:50.179584,13.20771382,.00021263,87.9187,273.9806,89.8874,270.2503,0,U,55801,999,16146,.17143307E-3,.83E-6,0
ONEWEB-0638,2023-029G,2026-06-19T14:24:42.719616,13.14504359,.0001714,87.8958,289.2706,84.0863,276.0462,0,U,55802,999,15971,-.82369739E-4,-.18E-6,0
ONEWEB-0639,2023-029H,2026-06-19T14:37:57.154656,13.19725712,.00014339,87.9172,304.4931,130.3944,229.7314,0,U,55803,999,15922,.11725767E-3,.6E-6,0
ONEWEB-0640,2023-029J,2026-06-19T14:38:23.985312,13.14503530,.00013157,87.8955,289.2594,87.2424,272.8856,0,U,55804,999,15973,.34571566E-3,.141E-5,0
ONEWEB-0641,2023-029K,2026-06-19T14:31:07.185792,13.19725109,.00018191,87.9181,304.4832,105.3464,254.7870,0,U,55805,999,15923,.18983806E-3,.89E-6,0
ONEWEB-0642,2023-029L,2026-06-19T14:24:18.425664,13.19725383,.0001675,87.9172,304.4961,126.2605,233.8683,0,U,55806,999,15922,-.11565805E-3,-.33E-6,0
ONEWEB-0643,2023-029M,2026-06-19T13:55:01.093728,13.14503676,.00020123,87.8959,289.2527,120.8088,239.3240,0,U,55807,999,15970,-.22666045E-3,-.71E-6,0
ONEWEB-0644,2023-029N,2026-06-19T08:49:56.844192,13.19724666,.00017816,87.9171,304.5436,110.6391,249.4933,0,U,55808,999,15919,.16592623E-3,.79E-6,0
ONEWEB-0645,2023-029P,2026-06-19T14:49:19.050240,13.19724905,.00014567,87.9169,304.4910,103.6814,256.4481,0,U,55809,999,15922,.32738355E-3,.144E-5,0
ONEWEB-0646,2023-029Q,2026-06-19T07:57:38.681280,13.19726087,.00018342,87.9173,304.5479,108.3578,251.7754,0,U,55810,999,15917,.27942617E-3,.125E-5,0
ONEWEB-0648,2023-029R,2026-06-19T14:58:56.552160,13.14501763,.00012333,87.8969,289.2178,123.9583,236.1665,0,U,55811,999,15971,.7578849E-3,.294E-5,0
ONEWEB-0649,2023-029S,2026-06-19T08:34:01.336224,13.19725276,.00016188,87.9173,304.5407,103.1714,256.9599,0,U,55812,999,15921,.12685353E-3,.64E-6,0
ONEWEB-0650,2023-029T,2026-06-19T08:27:10.993248,13.19725571,.00015669,87.9171,304.5441,120.4854,239.6433,0,U,55813,999,15918,-.19235646E-3,-.64E-6,0
ONEWEB-0652,2023-029U,2026-06-19T14:31:31.506528,13.14501873,.00020881,87.8965,289.2286,98.4986,261.6381,0,U,55814,999,15968,-.44139935E-3,-.151E-5,0
ONEWEB-0653,2023-029V,2026-06-19T14:08:42.012096,13.14503357,.00018994,87.8967,289.2296,98.3784,261.7561,0,U,55815,999,15971,-.49612151E-3,-.171E-5,0
ONEWEB-0654,2023-029W,2026-06-19T14:01:50.821536,13.14504701,.00021307,87.8966,289.2269,91.8901,268.2473,0,U,55816,999,15973,-.31821646E-3,-.105E-5,0
ONEWEB-0656,2023-029X,2026-06-19T13:16:07.463424,13.20773071,.00022788,87.9202,273.9585,91.3429,268.7966,0,U,55817,999,16146,.29308756E-3,.132E-5,0
ONEWEB-0657,2023-029Y,2026-06-19T08:20:23.405568,13.19724900,.00025837,87.9172,304.5438,101.1127,259.0297,0,U,55818,999,15919,.88848488E-4,.49E-6,0
ONEWEB-0658,2023-029Z,2026-06-19T08:13:33.854016,13.19724786,.00017512,87.9181,304.5205,112.3476,247.7842,0,U,55819,999,15920,.22339859E-3,.102E-5,0
ONEWEB-0660,2023-029AA,2026-06-19T13:29:53.191680,13.14503827,.00015612,87.8976,289.2247,99.6504,260.4803,0,U,55820,999,15971,.43302192E-3,.173E-5,0
ONEWEB-0661,2023-029AB,2026-06-19T08:51:18.499968,13.14503372,.00016381,87.8958,289.3079,96.3177,263.8139,0,U,55821,999,15967,-.33511335E-3,-.111E-5,0
ONEWEB-0662,2023-029AC,2026-06-19T13:20:45.912480,13.14503146,.00015754,87.8957,289.2764,100.7810,259.3497,0,U,55822,999,15974,.59846158E-3,.235E-5,0
ONEWEB-0663,2023-029AD,2026-06-19T14:04:24.168576,13.20869195,.00016113,87.9200,274.0234,108.9282,251.2026,0,U,55823,999,16146,.94455673E-4,.51E-6,0
ONEWEB-0664,2023-029AE,2026-06-19T12:56:44.362176,13.20771031,.00017402,87.9187,274.0136,87.5370,272.5963,0,U,55824,999,16145,.15267856E-3,.75E-6,0
ONEWEB-0665,2023-029AF,2026-06-19T14:15:34.079616,13.14503427,.00016022,87.8958,289.2437,104.0910,256.0398,0,U,55825,999,15972,-.33358696E-3,-.111E-5,0
ONEWEB-0666,2023-029AG,2026-06-19T12:47:02.427936,13.20771881,.0002725,87.9185,274.0042,104.2237,255.9199,0,U,55826,999,16146,.10062972E-3,.54E-6,0
